[{"OBJECT_NAME":"STARLINK-35754","OBJECT_ID":"2025-294AA","EPOCH":"2026-03-09T23:24:33.251904","MEAN_MOTION":15.27592727,"ECCENTRICITY":0.00010505,"INCLINATION":43.0022,"RA_OF_ASC_NODE":36.3933,"ARG_OF_PERICENTER":251.6572,"MEAN_ANOMALY":108.4166,"EPHEMERIS_TYPE":0,"CLASSIFICATION_TYPE":"U","NORAD_CAT_ID":67054,"ELEMENT_SET_NO":999,"REV_AT_EPOCH":1484,"BSTAR":0.00084834963,"MEAN_MOTION_DOT":0.00023165,"MEAN_MOTION_DDOT":0},{"OBJECT_NAME":"CZ-6A DEB","OBJECT_ID":"2024-140NC","EPOCH":"2026-03-09T01:19:44.598720","MEAN_MOTION":14.85954551,"ECCENTRICITY":0.01874643,"INCLINATION":89.0262,"RA_OF_ASC_NODE":281.6645,"ARG_OF_PERICENTER":160.2054,"MEAN_ANOMALY":200.6578,"EPHEMERIS_TYPE":0,"CLASSIFICATION_TYPE":"U","NORAD_CAT_ID":61086,"ELEMENT_SET_NO":999,"REV_AT_EPOCH":8276,"BSTAR":0.00091551765,"MEAN_MOTION_DOT":0.00011041,"MEAN_MOTION_DDOT":0}]
